0 VESSELSAT 1
1 37840U 11058C   13281.47643818  .00000264  00000-0  00000+0 0  5507
2 37840 019.9664 351.2724 0013554 052.6574 307.5063 14.10646280102818
0 VESSELSAT 1
1 37840U 11058C   13283.24485534  .00000264  00000-0  00000+0 0  5514
2 37840 019.9664 340.5883 0013537 072.2875 287.9006 14.10646483103069
0 VESSELSAT 1
1 37840U 11058C   13286.21578795  .00000264  00000-0  00000+0 0  5538
2 37840 019.9668 322.6361 0013672 105.2236 254.9695 14.10646915103487
0 VESSELSAT 1
1 37840U 11058C   13287.48904057  .00000264  00000-0  00000+0 0  5543
2 37840 019.9674 314.9366 0013823 119.4268 240.7577 14.10647247103664
0 VESSELSAT 1
1 37840U 11058C   13288.05492981  .00000264  00000-0  00000+0 0  5556
2 37840 019.9673 311.5178 0013861 125.5392 234.6329 14.10647346103741
0 VESSELSAT 1
1 37840U 11058C   13289.04523496  .00000264  00000-0  00000+0 0  5563
2 37840 019.9668 305.5335 0013803 137.4232 222.7283 14.10647533103884
0 VESSELSAT 1
1 37840U 11058C   13290.17701133  .00000265  00000-0  00000+0 0  5577
2 37840 019.9660 298.6948 0013849 150.1196 210.0024 14.10647751104043
0 VESSELSAT 1
1 37840U 11058C   13291.30878691  .00000265  00000-0  00000+0 0  5588
2 37840 019.9654 291.8527 0013987 162.8132 197.2784 14.10647937104200
0 VESSELSAT 1
1 37840U 11058C   13293.07718545  .00000265  00000-0  00000+0 0  5596
2 37840 019.9647 281.1625 0014083 182.4474 177.5916 14.10648163104455
0 VESSELSAT 1
1 37840U 11058C   13294.06748839  .00000265  00000-0  00000+0 0  5607
2 37840 019.9641 275.1783 0014140 192.8876 167.1214 14.10648388104592
0 VESSELSAT 1
1 37840U 11058C   13295.34073449  .00000265  00000-0  00000+0 0  5618
2 37840 019.9644 267.4785 0014197 206.0130 153.9625 14.10648830104775
